start=new Date('2022-04-13T00:00:00.000Z').valueOf();
sats=[{"MEAN_ELEMENT_THEORY":"SGP4","SITE":"AFETR","EPHEMERIS_TYPE":"0","REV_AT_EPOCH":"7677","SEMIMAJOR_AXIS":"6925.374","APOAPSIS":"548.233","MEAN_MOTION_DDOT":"0.0000000000000","TIME_SYSTEM":"UTC","ECCENTRICITY":"0.00014350","CENTER_NAME":"EARTH","CLASSIFICATION_TYPE":"U","TLE_LINE1":"1 47122U 20088A   22102.82487720  .00008188  00000-0  56806-3 0  9992","DECAY_DATE":null,"PERIAPSIS":"546.245","OBJECT_ID":"2020-088A","OBJECT_TYPE":"PAYLOAD","PERIOD":"95.593","FILE":"3398892","MEAN_MOTION_DOT":"0.00008188","RA_OF_ASC_NODE":"227.0521","NORAD_CAT_ID":"47122","ELEMENT_SET_NO":"999","REF_FRAME":"TEME","COUNTRY_CODE":"US","MEAN_ANOMALY":"286.9414","INCLINATION":"53.0533","BSTAR":"0.00056806000000","RCS_SIZE":"LARGE","GP_ID":"201092264","LAUNCH_DATE":"2020-11-25","OBJECT_NAME":"STARLINK-1777","TLE_LINE2":"2 47122  53.0533 227.0521 0001435  73.1732 286.9414 15.06391642 76770","EPOCH":"2022-04-12T19:47:49.390080","ARG_OF_PERICENTER":"73.1732","MEAN_MOTION":"15.06391642"},{"MEAN_MOTION_DDOT":"0.0000000000000","APOAPSIS":"548.346","REV_AT_EPOCH":"7699","SEMIMAJOR_AXIS":"6925.391","EPHEMERIS_TYPE":"0","SITE":"AFETR","MEAN_ELEMENT_THEORY":"SGP4","CLASSIFICATION_TYPE":"U","CENTER_NAME":"EARTH","ECCENTRICITY":"0.00015730","TIME_SYSTEM":"UTC","TLE_LINE1":"1 47124U 20088C   22102.74422554 -.00000981  00000-0 -46965-4 0  9990","DECAY_DATE":null,"OBJECT_ID":"2020-088C","PERIAPSIS":"546.167","FILE":"3398638","PERIOD":"95.593","OBJECT_TYPE":"PAYLOAD","REF_FRAME":"TEME","NORAD_CAT_ID":"47124","ELEMENT_SET_NO":"999","RA_OF_ASC_NODE":"232.4303","MEAN_MOTION_DOT":"-0.00000981","BSTAR":"-0.00004696500000","INCLINATION":"53.0554","MEAN_ANOMALY":"291.2191","COUNTRY_CODE":"US","TLE_LINE2":"2 47124  53.0554 232.4303 0001573  68.8966 291.2191 15.06386062 76991","LAUNCH_DATE":"2020-11-25","OBJECT_NAME":"STARLINK-1785","GP_ID":"201065455","RCS_SIZE":"LARGE","MEAN_MOTION":"15.06386062","ARG_OF_PERICENTER":"68.8966","EPOCH":"2022-04-12T17:51:41.086656"},{"ELEMENT_SET_NO":"999","NORAD_CAT_ID":"47126","REF_FRAME":"TEME","MEAN_MOTION_DOT":"-0.00001318","RA_OF_ASC_NODE":"226.9397","MEAN_ANOMALY":"308.9920","INCLINATION":"53.0544","BSTAR":"-0.00006964000000","COUNTRY_CODE":"US","OBJECT_NAME":"STARLINK-1812","LAUNCH_DATE":"2020-11-25","TLE_LINE2":"2 47126  53.0544 226.9397 0001542  51.1206 308.9920 15.06386203 76781","RCS_SIZE":"LARGE","GP_ID":"201093266","ARG_OF_PERICENTER":"51.1206","MEAN_MOTION":"15.06386203","EPOCH":"2022-04-12T20:24:58.776192","MEAN_MOTION_DDOT":"0.0000000000000","MEAN_ELEMENT_THEORY":"SGP4","SITE":"AFETR","EPHEMERIS_TYPE":"0","REV_AT_EPOCH":"7678","SEMIMAJOR_AXIS":"6925.391","APOAPSIS":"548.324","CLASSIFICATION_TYPE":"U","TIME_SYSTEM":"UTC","ECCENTRICITY":"0.00015420","CENTER_NAME":"EARTH","TLE_LINE1":"1 47126U 20088E   22102.85068028 -.00001318  00000-0 -69640-4 0  9996","DECAY_DATE":null,"OBJECT_ID":"2020-088E","PERIAPSIS":"546.188","FILE":"3398892","OBJECT_TYPE":"PAYLOAD","PERIOD":"95.593"},{"RCS_SIZE":"LARGE","GP_ID":"201092014","LAUNCH_DATE":"2020-11-25","OBJECT_NAME":"STARLINK-1837","TLE_LINE2":"2 47128  53.0534 207.1414 0001653  56.2933 303.8214 15.06386907 77051","EPOCH":"2022-04-12T19:23:56.288832","ARG_OF_PERICENTER":"56.2933","MEAN_MOTION":"15.06386907","MEAN_MOTION_DOT":"-0.00001000","RA_OF_ASC_NODE":"207.1414","ELEMENT_SET_NO":"999","NORAD_CAT_ID":"47128","REF_FRAME":"TEME","COUNTRY_CODE":"US","MEAN_ANOMALY":"303.8214","INCLINATION":"53.0534","BSTAR":"-0.00004826700000","TLE_LINE1":"1 47128U 20088G   22102.80829038 -.00001000  00000-0 -48267-4 0  9999","DECAY_DATE":null,"PERIAPSIS":"546.109","OBJECT_ID":"2020-088G","OBJECT_TYPE":"PAYLOAD","PERIOD":"95.593","FILE":"3398892","MEAN_ELEMENT_THEORY":"SGP4","SITE":"AFETR","EPHEMERIS_TYPE":"0","SEMIMAJOR_AXIS":"6925.389","REV_AT_EPOCH":"7705","APOAPSIS":"548.398","MEAN_MOTION_DDOT":"0.0000000000000","TIME_SYSTEM":"UTC","ECCENTRICITY":"0.00016530","CENTER_NAME":"EARTH","CLASSIFICATION_TYPE":"U"},{"INCLINATION":"53.0540","MEAN_ANOMALY":"311.5410","BSTAR":"-0.00010787000000","COUNTRY_CODE":"US","NORAD_CAT_ID":"47129","ELEMENT_SET_NO":"999","REF_FRAME":"TEME","MEAN_MOTION_DOT":"-0.00001887","RA_OF_ASC_NODE":"217.9001","ARG_OF_PERICENTER":"48.5733","MEAN_MOTION":"15.06386583","EPOCH":"2022-04-12T15:18:26.710560","LAUNCH_DATE":"2020-11-25","OBJECT_NAME":"STARLINK-1838","TLE_LINE2":"2 47129  53.0540 217.9001 0001793  48.5733 311.5410 15.06386583 76892","RCS_SIZE":"LARGE","GP_ID":"201092765","CLASSIFICATION_TYPE":"U","TIME_SYSTEM":"UTC","CENTER_NAME":"EARTH","ECCENTRICITY":"0.00017930","MEAN_MOTION_DDOT":"0.0000000000000","SITE":"AFETR","MEAN_ELEMENT_THEORY":"SGP4","EPHEMERIS_TYPE":"0","APOAPSIS":"548.496","REV_AT_EPOCH":"7689","SEMIMAJOR_AXIS":"6925.390","FILE":"3398892","OBJECT_TYPE":"PAYLOAD","PERIOD":"95.593","TLE_LINE1":"1 47129U 20088H   22102.63780915 -.00001887  00000-0 -10787-3 0  9999","DECAY_DATE":null,"OBJECT_ID":"2020-088H","PERIAPSIS":"546.013"},{"FILE":"3398892","PERIOD":"95.593","OBJECT_TYPE":"PAYLOAD","TLE_LINE1":"1 47130U 20088J   22102.75391491 -.00000909  00000-0 -42102-4 0  9992","DECAY_DATE":null,"OBJECT_ID":"2020-088J","PERIAPSIS":"545.878","CLASSIFICATION_TYPE":"U","CENTER_NAME":"EARTH","ECCENTRICITY":"0.00019840","TIME_SYSTEM":"UTC","MEAN_MOTION_DDOT":"0.0000000000000","APOAPSIS":"548.626","REV_AT_EPOCH":"7662","SEMIMAJOR_AXIS":"6925.387","SITE":"AFETR","MEAN_ELEMENT_THEORY":"SGP4","EPHEMERIS_TYPE":"0","MEAN_MOTION":"15.06387458","ARG_OF_PERICENTER":"43.1711","EPOCH":"2022-04-12T18:05:38.248224","TLE_LINE2":"2 47130  53.0541 237.3701 0001984  43.1711 316.9433 15.06387458 76624","LAUNCH_DATE":"2020-11-25","OBJECT_NAME":"STARLINK-1839","GP_ID":"201093016","RCS_SIZE":"LARGE","BSTAR":"-0.00004210200000","INCLINATION":"53.0541","MEAN_ANOMALY":"316.9433","COUNTRY_CODE":"US","REF_FRAME":"TEME","NORAD_CAT_ID":"47130","ELEMENT_SET_NO":"999","RA_OF_ASC_NODE":"237.3701","MEAN_MOTION_DOT":"-0.00000909"},{"DECAY_DATE":null,"TLE_LINE1":"1 47133U 20088M   22102.82948687  .00019183  00000-0  13034-2 0  9990","OBJECT_ID":"2020-088M","PERIAPSIS":"546.175","PERIOD":"95.593","OBJECT_TYPE":"PAYLOAD","FILE":"3398892","APOAPSIS":"548.289","REV_AT_EPOCH":"7691","SEMIMAJOR_AXIS":"6925.367","EPHEMERIS_TYPE":"0","SITE":"AFETR","MEAN_ELEMENT_THEORY":"SGP4","MEAN_MOTION_DDOT":"0.0000000000000","CENTER_NAME":"EARTH","ECCENTRICITY":"0.00015260","TIME_SYSTEM":"UTC","CLASSIFICATION_TYPE":"U","GP_ID":"201093767","RCS_SIZE":"LARGE","TLE_LINE2":"2 47133  53.0521 217.0344 0001526  62.9435 297.1709 15.06393997 76910","OBJECT_NAME":"STARLINK-1843","LAUNCH_DATE":"2020-11-25","EPOCH":"2022-04-12T19:54:27.665568","MEAN_MOTION":"15.06393997","ARG_OF_PERICENTER":"62.9435","RA_OF_ASC_NODE":"217.0344","MEAN_MOTION_DOT":"0.00019183","REF_FRAME":"TEME","ELEMENT_SET_NO":"999","NORAD_CAT_ID":"47133","COUNTRY_CODE":"US","BSTAR":"0.00130340000000","INCLINATION":"53.0521","MEAN_ANOMALY":"297.1709"},{"CLASSIFICATION_TYPE":"U","ECCENTRICITY":"0.00016680","CENTER_NAME":"EARTH","TIME_SYSTEM":"UTC","MEAN_MOTION_DDOT":"0.0000000000000","SEMIMAJOR_AXIS":"6925.385","REV_AT_EPOCH":"7676","APOAPSIS":"548.405","SITE":"AFETR","EPHEMERIS_TYPE":"0","MEAN_ELEMENT_THEORY":"SGP4","FILE":"3398892","PERIOD":"95.593","OBJECT_TYPE":"PAYLOAD","DECAY_DATE":null,"TLE_LINE1":"1 47134U 20088N   22102.73641371 -.00001216  00000-0 -62793-4 0  9999","PERIAPSIS":"546.095","OBJECT_ID":"2020-088N","BSTAR":"-0.00006279300000","MEAN_ANOMALY":"304.1999","INCLINATION":"53.0542","COUNTRY_CODE":"US","REF_FRAME":"TEME","ELEMENT_SET_NO":"999","NORAD_CAT_ID":"47134","RA_OF_ASC_NODE":"227.4604","MEAN_MOTION_DOT":"-0.00001216","MEAN_MOTION":"15.06388026","ARG_OF_PERICENTER":"55.9148","EPOCH":"2022-04-12T17:40:26.144544","TLE_LINE2":"2 47134  53.0542 227.4604 0001668  55.9148 304.1999 15.06388026 76768","LAUNCH_DATE":"2020-11-25","OBJECT_NAME":"STARLINK-1844","GP_ID":"201092515","RCS_SIZE":"LARGE"},{"OBJECT_TYPE":"PAYLOAD","PERIOD":"95.593","FILE":"3398892","TLE_LINE1":"1 47135U 20088P   22102.75576483 -.00000667  00000-0 -25883-4 0  9991","DECAY_DATE":null,"OBJECT_ID":"2020-088P","PERIAPSIS":"546.024","TIME_SYSTEM":"UTC","ECCENTRICITY":"0.00017600","CENTER_NAME":"EARTH","CLASSIFICATION_TYPE":"U","EPHEMERIS_TYPE":"0","SITE":"AFETR","MEAN_ELEMENT_THEORY":"SGP4","SEMIMAJOR_AXIS":"6925.378","REV_AT_EPOCH":"7690","APOAPSIS":"548.462","MEAN_MOTION_DDOT":"0.0000000000000","EPOCH":"2022-04-12T18:08:18.081312","ARG_OF_PERICENTER":"58.9461","MEAN_MOTION":"15.06390492","RCS_SIZE":"LARGE","GP_ID":"201092265","LAUNCH_DATE":"2020-11-25","OBJECT_NAME":"STARLINK-1845","TLE_LINE2":"2 47135  53.0541 217.3852 0001760  58.9461 301.1700 15.06390492 76908","COUNTRY_CODE":"US","MEAN_ANOMALY":"301.1700","INCLINATION":"53.0541","BSTAR":"-0.00002588300000","MEAN_MOTION_DOT":"-0.00000667","RA_OF_ASC_NODE":"217.3852","ELEMENT_SET_NO":"999","NORAD_CAT_ID":"47135","REF_FRAME":"TEME"},{"SEMIMAJOR_AXIS":"6925.357","REV_AT_EPOCH":"7677","APOAPSIS":"548.279","EPHEMERIS_TYPE":"0","SITE":"AFETR","MEAN_ELEMENT_THEORY":"SGP4","MEAN_MOTION_DDOT":"0.0000000000000","ECCENTRICITY":"0.00015270","CENTER_NAME":"EARTH","TIME_SYSTEM":"UTC","CLASSIFICATION_TYPE":"U","DECAY_DATE":null,"TLE_LINE1":"1 47136U 20088Q   22102.82119317  .00018464  00000-0  12553-2 0  9999","OBJECT_ID":"2020-088Q","PERIAPSIS":"546.164","PERIOD":"95.592","OBJECT_TYPE":"PAYLOAD","FILE":"3398892","RA_OF_ASC_NODE":"227.0902","MEAN_MOTION_DOT":"0.00018464","REF_FRAME":"TEME","NORAD_CAT_ID":"47136","ELEMENT_SET_NO":"999","COUNTRY_CODE":"US","BSTAR":"0.00125530000000","MEAN_ANOMALY":"292.3127","INCLINATION":"53.0549","GP_ID":"201093517","RCS_SIZE":"LARGE","TLE_LINE2":"2 47136  53.0549 227.0902 0001527  67.8024 292.3127 15.06397264 76779","OBJECT_NAME":"STARLINK-1846","LAUNCH_DATE":"2020-11-25","EPOCH":"2022-04-12T19:42:31.089888","MEAN_MOTION":"15.06397264","ARG_OF_PERICENTER":"67.8024"}];
